OBJECT_NAME,OBJECT_ID,EPOCH,MEAN_MOTION,ECCENTRICITY,INCLINATION,RA_OF_ASC_NODE,ARG_OF_PERICENTER,MEAN_ANOMALY,EPHEMERIS_TYPE,CLASSIFICATION_TYPE,NORAD_CAT_ID,ELEMENT_SET_NO,REV_AT_EPOCH,BSTAR,MEAN_MOTION_DOT,MEAN_MOTION_DDOT
INTELSAT 23 (IS-23),2012-057A,2026-07-07T18:37:40.510848,1.00269005,.000024,0.0036,19.4094,166.3553,326.3994,0,U,38867,999,5016,0,-.269E-5,0
FM-6,2013-058A,2026-07-07T16:36:59.454720,1.00270730,.0002843,0.0429,67.7872,116.5710,234.2159,0,U,39360,999,4627,0,0,0
INTELSAT 30 (IS-30),2014-062A,2026-07-07T13:17:38.516928,1.00269626,.0001325,0.0162,45.6651,344.1934,0.0276,0,U,40271,999,699,0,-.135E-5,0
DIRECTV 14,2014-078B,2026-07-07T14:59:06.533088,1.00273130,.0000237,0.0105,36.3379,306.2450,68.5441,0,U,40333,999,4224,0,-.11E-5,0
DIRECTV 15,2015-026A,2026-07-07T16:40:44.097312,1.00268937,.0000569,0.0154,67.0460,280.7037,85.2252,0,U,40663,999,4066,0,-.87E-6,0
SKY MEXICO-1,2015-026B,2026-07-07T13:22:15.574080,1.00270671,.0002478,0.0158,305.7926,181.9321,279.5699,0,U,40664,999,4065,0,-.219E-5,0
INTELSAT 34 (IS-34),2015-039A,2026-07-07T16:54:05.317344,1.00270264,.0000326,0.0116,335.6439,31.7899,116.2693,0,U,40874,999,3984,0,-.27E-5,0
INTELSAT 31 (IS-31),2016-035A,2026-07-06T06:29:56.251680,1.00270733,.00008295,0.0403,211.4121,55.4380,19.8435,0,U,41581,999,3687,0,-.136E-5,0
INTELSAT 36 (IS-36),2016-053A,2026-07-07T19:12:15.203808,1.00285795,.0000975,0.0091,10.2892,27.8198,244.1989,0,U,41747,999,3616,0,-.12E-6,0
INTELSAT 32E (IS-32E),2017-007B,2026-07-07T16:57:49.958208,1.00269388,.0000722,0.0172,342.1462,358.9200,155.8895,0,U,41945,999,3443,0,-.254E-5,0
INTELSAT 35E (IS-35E),2017-041A,2026-07-07T17:00:19.717056,1.00269717,.0001632,0.0210,22.2257,86.0046,38.0382,0,U,42818,999,3302,0,0,0
INTELSAT 37E (IS-37E),2017-059A,2026-07-07T17:04:56.775072,1.00269819,.000252,0.0236,36.8321,78.1074,48.9785,0,U,42950,999,3227,0,0,0
AZERSPACE 2 (IS-38),2018-074A,2026-07-07T17:22:55.178400,1.00270851,.0001236,0.0221,27.2654,91.2773,112.9850,0,U,43632,999,2865,0,0,0
HORIZONS-3E,2018-074B,2026-07-06T21:26:28.334400,1.00269288,.000086,0.0376,227.4998,64.0191,123.9783,0,U,43633,999,2853,0,-.16E-6,0
AT&T T-16,2019-034A,2026-07-07T14:58:44.069088,1.00268804,.0000472,0.0146,66.9323,242.0117,100.4644,0,U,44333,999,2583,0,-.1E-5,0
INTELSAT 39 (IS-39),2019-049B,2026-07-07T08:54:19.056096,1.00274979,.00005042,0.0158,9.7580,307.4421,163.6784,0,U,44476,999,2533,0,.48E-6,0
GALAXY 30 (G-30),2020-056C,2026-07-06T18:19:48.356832,1.00270907,.00021864,0.0206,38.7570,67.2773,328.6685,0,U,46114,999,2148,0,.52E-6,0
GALAXY 33 (G-33),2022-128A,2026-07-07T16:32:07.420992,1.00273136,.0001771,0.0132,319.7629,147.6047,293.3254,0,U,54026,999,1394,0,.94E-6,0
GALAXY 34 (G-34),2022-128B,2026-07-06T16:36:07.830720,1.00275248,.00018292,0.0172,18.6774,102.5440,283.4893,0,U,54027,999,1410,0,0,0
GALAXY 31 (G-31),2022-153A,2026-07-07T14:52:59.619072,1.00272439,.0001296,0.0146,287.8146,179.7967,280.2244,0,U,54243,999,733,0,.28E-6,0
GALAXY 32 (G-32),2022-153B,2026-07-07T01:20:14.419680,1.00270818,.00016222,0.0098,22.5735,26.6946,164.8256,0,U,54244,999,1334,0,-.159E-5,0
GALAXY 35 (G-35),2022-170A,2026-07-07T15:00:51.364800,1.00271515,.0002057,0.0237,90.2369,19.6523,307.8160,0,U,54741,999,1309,0,-.147E-5,0
GALAXY 36 (G-36),2022-170B,2026-07-07T15:02:06.245952,1.00270868,.0002639,0.0243,132.4340,325.8640,323.8193,0,U,54742,999,1297,0,-.17E-5,0
GALAXY 37 (G-37),2023-112A,2026-07-07T16:33:52.255296,1.00272376,.0001845,0.0190,36.5793,77.8615,292.6849,0,U,57493,999,1074,0,.63E-6,0
